0 DELTA 2 R/B(2) (PAM-D)
1 34662U 09014B   13282.23978068  .00213746 -34734-7  11341-2 0  1204
2 34662 040.0315 337.3539 3547348 275.9597 081.2241 08.47053543 98236
0 DELTA 2 R/B(2) (PAM-D)
1 34662U 09014B   13282.54018170  .00201369 -34251-7  10687-2 0  1212
2 34662 040.0300 336.7669 3546766 276.6998 277.3266 08.47165316 98263
0 DELTA 2 R/B(2) (PAM-D)
1 34662U 09014B   13283.18377780  .00207929 -32819-7  11030-2 0  1228
2 34662 040.0287 335.5088 3545350 278.2862 080.4860 08.47443536 98317
0 DELTA 2 R/B(2) (PAM-D)
1 34662U 09014B   13284.12040509  .00209590 -30142-7  11164-2 0  1231
2 34662 040.0293 333.6768 3543375 280.5958 058.5725 08.47804612 98395
0 DELTA 2 R/B(2) (PAM-D)
1 34662U 09014B   13285.48502716  .00204870 -25327-7  10948-2 0  1250
2 34662 040.0291 331.0073 3540520 283.9633 264.8860 08.48342001 98516
0 DELTA 2 R/B(2) (PAM-D)
1 34662U 09014B   13286.12724716  .00205733 -22687-7  11008-2 0  1262
2 34662 040.0282 329.7490 3539162 285.5483 066.5512 08.48599219 98565
0 DELTA 2 R/B(2) (PAM-D)
1 34662U 09014B   13286.25269976  .00200285 -22174-7  10729-2 0  1276
2 34662 040.0280 329.5034 3538917 285.8569 089.8219 08.48640301 98572
0 DELTA 2 R/B(2) (PAM-D)
1 34662U 09014B   13286.67586486  .00204723 -20156-7  11013-2 0  1287
2 34662 040.0287 328.6731 3537954 286.9039 302.7770 08.48803875 98618
0 DELTA 2 R/B(2) (PAM-D)
1 34662U 09014B   13287.19209274  .00206837 -17630-7  11133-2 0  1297
2 34662 040.0285 327.6615 3536882 288.1767 080.4281 08.49009405 98656
0 DELTA 2 R/B(2) (PAM-D)
1 34662U 09014B   13287.48557640  .00211248 -16146-7  11360-2 0  1309
2 34662 040.0276 327.0864 3536340 288.9029 257.5130 08.49120158 98686
0 DELTA 2 R/B(2) (PAM-D)
1 34662U 09014B   13287.61642355  .00220089 -15402-7  11834-2 0  1316
2 34662 040.0275 326.8294 3536047 289.2270 297.5079 08.49177907 98696
0 DELTA 2 R/B(2) (PAM-D)
1 34662U 09014B   13288.12964027  .00233745 -12500-7  12562-2 0  1325
2 34662 040.0272 325.8227 3534901 290.4944 066.6562 08.49403931 98733
0 DELTA 2 R/B(2) (PAM-D)
1 34662U 09014B   13288.41609219  .00228925 -10907-7  12303-2 0  1333
2 34662 040.0267 325.2609 3534280 291.2018 222.6612 08.49524866 98760
0 DELTA 2 R/B(2) (PAM-D)
1 34662U 09014B   13288.76955172  .00225614 -88455-8  12113-2 0  1349
2 34662 040.0263 324.5669 3533516 292.0755 223.7501 08.49679328 98798
0 DELTA 2 R/B(2) (PAM-D)
1 34662U 09014B   13289.06387748  .00230855 -69912-8  12389-2 0  1357
2 34662 040.0262 323.9882 3532836 292.8037 044.1290 08.49814260 98811
0 DELTA 2 R/B(2) (PAM-D)
1 34662U 09014B   13289.48645997  .00227085 -43603-8  12173-2 0  1368
2 34662 040.0255 323.1585 3531965 293.8501 257.0952 08.49990318 98857
0 DELTA 2 R/B(2) (PAM-D)
1 34662U 09014B   13289.61693444  .00230384 -34864-8  12351-2 0  1377
2 34662 040.0254 322.9016 3531729 294.1739 296.3620 08.50035772 98862
0 DELTA 2 R/B(2) (PAM-D)
1 34662U 09014B   13289.93286204  .00228502 -14197-8  12237-2 0  1384
2 34662 040.0249 322.2815 3531035 294.9530 183.2415 08.50177060 98899
0 DELTA 2 R/B(2) (PAM-D)
1 34662U 09014B   13290.41589513  .00234866  19749-8  12551-2 0  1395
2 34662 040.0246 321.3313 3530033 296.1507 221.8282 08.50384434 98935
0 DELTA 2 R/B(2) (PAM-D)
1 34662U 09014B   13290.55152677  .00235002  29450-8  12553-2 0  1404
2 34662 040.0246 321.0640 3529751 296.4874 277.0696 08.50441755 98943
0 DELTA 2 R/B(2) (PAM-D)
1 34662U 09014B   13291.18762774  .00232834  75837-8  12409-2 0  1410
2 34662 040.0240 319.8126 3528368 298.0621 064.9061 08.50724160 98990
0 DELTA 2 R/B(2) (PAM-D)
1 34662U 09014B   13291.48470350  .00235624  98666-8  12535-2 0  1425
2 34662 040.0237 319.2277 3527787 298.8004 254.8144 08.50847679 99022
0 DELTA 2 R/B(2) (PAM-D)
1 34662U 09014B   13292.12496184  .00233835  14924-7  12412-2 0  1431
2 34662 040.0234 317.9664 3526380 300.3879 056.3225 08.51134640 99079
0 DELTA 2 R/B(2) (PAM-D)
1 34662U 09014B   13292.24243052  .00233805  15882-7  12406-2 0  1443
2 34662 040.0234 317.7350 3526137 300.6797 056.2735 08.51184030 99085
0 DELTA 2 R/B(2) (PAM-D)
1 34662U 09014B   13292.55084009  .00232597  18408-7  12320-2 0  1452
2 34662 040.0230 317.1271 3525515 301.4463 281.4087 08.51315389 99114
0 DELTA 2 R/B(2) (PAM-D)
1 34662U 09014B   13293.05956976  .00236372  22784-7  12510-2 0  1468
2 34662 040.0228 316.1241 3524356 302.7091 040.7725 08.51545830 99155
0 DELTA 2 R/B(2) (PAM-D)
1 34662U 09014B   13293.48146524  .00238387  26501-7  12583-2 0  1475
2 34662 040.0224 315.2922 3523512 303.7589 254.2729 08.51725551 99193
0 DELTA 2 R/B(2) (PAM-D)
1 34662U 09014B   13294.12011561  .00241708  32308-7  12739-2 0  1486
2 34662 040.0213 314.0317 3522109 305.3471 052.8701 08.52007716 99240
0 DELTA 2 R/B(2) (PAM-D)
1 34662U 09014B   13294.40912667  .00244312  35020-7  12851-2 0  1498
2 34662 040.0207 313.4614 3521527 306.0677 219.4197 08.52132356 99277
0 DELTA 2 R/B(2) (PAM-D)
1 34662U 09014B   13294.82487186  .00249349  39112-7  13115-2 0  1504
2 34662 040.0212 312.6408 3520554 307.1033 054.9536 08.52322492 99307
0 DELTA 2 R/B(2) (PAM-D)
1 34662U 09014B   13295.17332062  .00245172  42452-7  12880-2 0  1515
2 34662 040.0207 311.9525 3519819 307.9700 044.2425 08.52472608 99331
0 DELTA 2 R/B(2) (PAM-D)
1 34662U 09014B   13296.11326999  .00247406  52058-7  12998-2 0  1528
2 34662 040.0201 310.0951 3517554 310.3141 049.6442 08.52914092 99414
